CCSDS_OMM_VERS,COMMENT,CREATION_DATE,ORIGINATOR,OBJECT_NAME,OBJECT_ID,CENTER_NAME,REF_FRAME,TIME_SYSTEM,MEAN_ELEMENT_THEORY,EPOCH,MEAN_MOTION,ECCENTRICITY,INCLINATION,RA_OF_ASC_NODE,ARG_OF_PERICENTER,MEAN_ANOMALY,EPHEMERIS_TYPE,CLASSIFICATION_TYPE,NORAD_CAT_ID,ELEMENT_SET_NO,REV_AT_EPOCH,BSTAR,MEAN_MOTION_DOT,MEAN_MOTION_DDOT,SEMIMAJOR_AXIS,PERIOD,APOAPSIS,PERIAPSIS,OBJECT_TYPE,RCS_SIZE,COUNTRY_CODE,LAUNCH_DATE,SITE,DECAY_DATE,FILE,GP_ID,TLE_LINE0,TLE_LINE1,TLE_LINE2
"3.0","GENERATED VIA SPACE-TRACK.ORG API","2026-03-24T04:52:42","18 SPCS","DMSP 5D-2 F11 DEB","1991-082AQ","EARTH","TEME","UTC","SGP4","2026-03-23T12:07:32.615040","14.49054055","0.00222497","98.6685","172.5157","224.2204","146.7560","0","U","28327","999","66415","0.00193385820000","0.00007324","0.0000000000000","7106.877","99.375","744.554","712.929","DEBRIS","SMALL","US","1991-11-28","AFWTR","","5095836","316890327","0 DMSP 5D-2 F11 DEB","1 28327U 91082AQ  26082.50523860  .00007324  00000-0  19339-2 0  9992","2 28327  98.6685 172.5157 0022250 224.2204 146.7560 14.49054055664159"
"3.0","GENERATED VIA SPACE-TRACK.ORG API","2025-04-09T17:26:22","18 SPCS","DMSP 5D-2 F11 DEB","1991-082AU","EARTH","TEME","UTC","SGP4","2024-02-08T06:28:22.665792","14.57843026","0.00337960","98.2815","44.9114","155.4796","204.8019","0","U","28331","999","3793","0.00501210000000","0.00023154","0.0000000000000","7078.284","98.776","724.071","676.227","DEBRIS","SMALL","US","1991-11-28","AFWTR","","4696534","285204634","0 DMSP 5D-2 F11 DEB","1 28331U 91082AU  24039.26970678  .00023154  00000-0  50121-2 0  9996","2 28331  98.2815  44.9114 0033796 155.4796 204.8019 14.57843026 37936"
"3.0","GENERATED VIA SPACE-TRACK.ORG API","2026-03-24T04:52:42","18 SPCS","DMSP 5D-2 F11 DEB","1991-082AY","EARTH","TEME","UTC","SGP4","2026-03-23T11:07:56.506944","14.47317882","0.00110924","98.5592","156.9212","148.1999","211.9864","0","U","28335","999","66260","0.00154801220000","0.00005630","0.0000000000000","7112.559","99.494","742.314","726.535","DEBRIS","SMALL","US","1991-11-28","AFWTR","","5095836","316890829","0 DMSP 5D-2 F11 DEB","1 28335U 91082AY  26082.46384846  .00005630  00000-0  15480-2 0  9996","2 28335  98.5592 156.9212 0011092 148.1999 211.9864 14.47317882662607"
"3.0","GENERATED VIA SPACE-TRACK.ORG API","2026-03-25T04:32:27","18 SPCS","DMSP 5D-2 F11 DEB","1991-082BH","EARTH","TEME","UTC","SGP4","2026-03-24T12:05:37.329792","14.73657453","0.00055897","98.5155","180.6067","221.4496","200.7965","0","U","28344","999","67046","0.00249513780000","0.00016254","0.0000000000000","7027.553","97.716","653.346","645.490","DEBRIS","SMALL","US","1991-11-28","AFWTR","","5096755","316974514","0 DMSP 5D-2 F11 DEB","1 28344U 91082BH  26083.50390428  .00016254  00000-0  24951-2 0  9992","2 28344  98.5155 180.6067 0005590 221.4496 200.7965 14.73657453670468"
"3.0","GENERATED VIA SPACE-TRACK.ORG API","2026-03-25T17:29:05","18 SPCS","DMSP 5D-2 F11 DEB","1991-082BJ","EARTH","TEME","UTC","SGP4","2026-03-25T05:44:59.695584","14.67507839","0.00547268","98.6151","187.4314","156.8066","203.5625","0","U","28345","999","11721","0.00567904780000","0.00033015","0.0000000000000","7047.172","98.126","707.604","630.470","DEBRIS","SMALL","US","1991-11-28","AFWTR","","5096884","317008208","0 DMSP 5D-2 F11 DEB","1 28345U 91082BJ  26084.23957981  .00033015  00000-0  56790-2 0  9997","2 28345  98.6151 187.4314 0054727 156.8066 203.5625 14.67507839117214"
"3.0","GENERATED VIA SPACE-TRACK.ORG API","2026-03-25T17:29:05","18 SPCS","SL-24 DEB","2004-025J","EARTH","TEME","UTC","SGP4","2026-03-25T10:15:02.716128","14.84786417","0.00109536","98.2141","53.4391","229.2283","248.2679","0","U","28374","999","15970","0.00087216077000","0.00007355","0.0000000000000","6992.393","96.984","621.918","606.599","DEBRIS","MEDIUM","CIS","2004-06-29","TTMTR","","5096884","317008219","0 SL-24 DEB","1 28374U 04025J   26084.42711477  .00007355  00000-0  87216-3 0  9995","2 28374  98.2141  53.4391 0010954 229.2283 248.2679 14.84786417159703"
"3.0","GENERATED VIA SPACE-TRACK.ORG API","2026-03-25T17:29:05","18 SPCS","CZ-4B DEB","2002-024E","EARTH","TEME","UTC","SGP4","2026-03-25T12:23:14.537472","14.48965066","0.00157187","98.6456","103.1764","13.9820","346.1805","0","U","28438","999","24215","0.00099437371000","0.00003728","0.0000000000000","7107.168","99.381","740.204","717.861","DEBRIS","SMALL","PRC","2002-05-15","TSC","","5096884","317008230","0 CZ-4B DEB","1 28438U 02024E   26084.51614048  .00003728  00000-0  99437-3 0  9997","2 28438  98.6456 103.1764 0015719  13.9820 346.1805 14.48965066242153"
"3.0","GENERATED VIA SPACE-TRACK.ORG API","2026-03-25T17:29:05","18 SPCS","CZ-2C DEB","2004-046E","EARTH","TEME","UTC","SGP4","2026-03-25T15:15:53.095680","14.77665770","0.00616905","98.2761","216.6780","139.4104","232.2285","0","U","28483","999","12439","0.00187235850000","0.00013800","0.0000000000000","7014.839","97.451","679.979","593.429","DEBRIS","SMALL","PRC","2004-11-18","XSC","","5096884","317007739","0 CZ-2C DEB","1 28483U 04046E   26084.63603120  .00013800  00000-0  18724-2 0  9996","2 28483  98.2761 216.6780 0061690 139.4104 232.2285 14.77665770124397"
"3.0","GENERATED VIA SPACE-TRACK.ORG API","2026-03-25T17:29:05","18 SPCS","CZ-2C DEB","2004-046F","EARTH","TEME","UTC","SGP4","2026-03-25T11:16:44.094720","14.60573411","0.00777101","98.3687","165.2551","156.3593","221.3711","0","U","28484","999","12132","0.00099047289000","0.00004973","0.0000000000000","7069.460","98.591","746.262","636.388","DEBRIS","SMALL","PRC","2004-11-18","XSC","","5096884","317008240","0 CZ-2C DEB","1 28484U 04046F   26084.46995480  .00004973  00000-0  99047-3 0  9990","2 28484  98.3687 165.2551 0077710 156.3593 221.3711 14.60573411121326"
"3.0","GENERATED VIA SPACE-TRACK.ORG API","2026-03-25T04:32:27","18 SPCS","PSLV DEB","2001-049PE","EARTH","TEME","UTC","SGP4","2026-03-24T20:44:32.666208","14.77510052","0.00400767","98.2599","124.2630","243.5141","290.2829","0","U","28852","999","68630","0.00010279864000","0.00000685","0.0000000000000","7015.332","97.461","665.312","609.082","DEBRIS","SMALL","IND","2001-10-22","SRI","","5096755","316975126","0 PSLV DEB","1 28852U 01049PE  26083.86426697  .00000685  00000-0  10280-3 0  9999","2 28852  98.2599 124.2630 0040077 243.5141 290.2829 14.77510052686302"
"3.0","GENERATED VIA SPACE-TRACK.ORG API","2020-10-28T05:10:23","18 SPCS","PSLV DEB","2001-049PJ","EARTH","TEME","UTC","SGP4","2009-11-14T04:23:34.933344","14.68270261","0.00436030","97.7379","302.1955","282.1076","84.3433","0","U","28856","999","27686","0.00005381200000","0.00000267","0.0000000000000","7044.732","98.074","697.314","635.880","DEBRIS","SMALL","IND","2001-10-22","SRI","","2863612","164353431","0 PSLV DEB","1 28856U 01049PJ  09318.18304321 +.00000267 +00000-0 +53812-4 0  9994","2 28856 097.7379 302.1955 0043603 282.1076 084.3433 14.68270261276861"
"3.0","GENERATED VIA SPACE-TRACK.ORG API","2026-03-25T17:29:05","18 SPCS","SSETI-EXPRESS DEB","2005-043H","EARTH","TEME","UTC","SGP4","2026-03-25T09:08:14.936352","14.73661326","0.00145873","98.2828","240.4437","96.8130","330.2765","0","U","28897","999","8196","0.00028742651000","0.00001824","0.0000000000000","7027.541","97.716","659.657","639.155","DEBRIS","SMALL","ESA","2005-10-27","PKMTR","","5096884","317008329","0 SSETI-EXPRESS DEB","1 28897U 05043H   26084.38072843  .00001824  00000-0  28743-3 0  9993","2 28897  98.2828 240.4437 0014587  96.8130 330.2765 14.73661326 81968"
"3.0","GENERATED VIA SPACE-TRACK.ORG API","2026-03-25T17:29:05","18 SPCS","CZ-4 DEB","1999-057NJ","EARTH","TEME","UTC","SGP4","2026-03-25T09:57:30.054816","14.75133482","0.00456128","98.3474","137.1835","239.5589","134.2101","0","U","29039","999","23515","0.00058412729000","0.00003952","0.0000000000000","7022.865","97.618","676.763","612.696","DEBRIS","SMALL","PRC","1999-10-14","TSC","","5096884","317008371","0 CZ-4 DEB","1 29039U 99057NJ  26084.41493119  .00003952  00000-0  58413-3 0  9998","2 29039  98.3474 137.1835 0045613 239.5589 134.2101 14.75133482235154"
"3.0","GENERATED VIA SPACE-TRACK.ORG API","2026-03-25T17:29:05","18 SPCS","ASTRO F DEB (LENS COVER)","2006-005E","EARTH","TEME","UTC","SGP4","2026-03-25T07:18:39.190464","14.67034544","0.00100119","98.0737","99.7982","115.6318","244.5922","0","U","29054","999","7013","0.00015055061000","0.00000797","0.0000000000000","7048.688","98.157","677.610","663.496","DEBRIS","MEDIUM","JPN","2006-02-21","KSCUT","","5096884","317007877","0 ASTRO F DEB (LENS COVER)","1 29054U 06005E   26084.30462026  .00000797  00000-0  15055-3 0  9996","2 29054  98.0737  99.7982 0010012 115.6318 244.5922 14.67034544 70136"
"3.0","GENERATED VIA SPACE-TRACK.ORG API","2026-03-25T17:29:05","18 SPCS","DMSP 5D-2 F11 DEB","1991-082BR","EARTH","TEME","UTC","SGP4","2026-03-25T14:03:44.749440","14.90662212","0.00077123","98.5917","205.6981","258.9353","101.0995","0","U","29070","999","12049","0.00436506160000","0.00043001","0.0000000000000","6974.006","96.601","601.250","590.493","DEBRIS","SMALL","US","1991-11-28","AFWTR","","5096884","317008383","0 DMSP 5D-2 F11 DEB","1 29070U 91082BR  26084.58593460  .00043001  00000-0  43651-2 0  9997","2 29070  98.5917 205.6981 0007712 258.9353 101.0995 14.90662212120496"
"3.0","GENERATED VIA SPACE-TRACK.ORG API","2026-03-25T17:29:05","18 SPCS","DMSP 5D-2 F11 DEB","1991-082BV","EARTH","TEME","UTC","SGP4","2026-03-24T23:19:09.042816","14.57760045","0.00072985","98.5707","173.2126","78.6155","281.5862","0","U","29074","999","11832","0.00160859990000","0.00007312","0.0000000000000","7078.553","98.782","705.584","695.252","DEBRIS","SMALL","US","1991-11-28","AFWTR","","5096884","317008384","0 DMSP 5D-2 F11 DEB","1 29074U 91082BV  26083.97163244  .00007312  00000-0  16086-2 0  9993","2 29074  98.5707 173.2126 0007299  78.6155 281.5862 14.57760045118327"
